{
  "norad_id": 57367,
  "name": "STARLINK-6215",
  "history": [
    {
      "epoch": "2026-03-28T18:27:54.451008Z",
      "apogee_km": 486.31091791044673,
      "perigee_km": 484.77112038363157,
      "latitude_deg": 1.0492131021937832e-05,
      "longitude_deg": 12.078360363943688,
      "height_km": 485.33953647574396,
      "semi_major_axis_km": 6863.678019147039,
      "eccentricity": 0.00011217,
      "inclination_deg": 43.0027,
      "raan_deg": 115.2403,
      "arg_perigee_deg": 268.3869,
      "mean_anomaly_deg": 91.6854,
      "mean_motion_rev_day": 15.26748172
    },
    {
      "epoch": "2026-03-29T02:18:56.996928Z",
      "apogee_km": 486.3221692773932,
      "perigee_km": 484.7805848679027,
      "latitude_deg": 1.5503211753355556e-05,
      "longitude_deg": -107.84955942140076,
      "height_km": 485.3624420308968,
      "semi_major_axis_km": 6863.688377072647,
      "eccentricity": 0.0001123,
      "inclination_deg": 43.0026,
      "raan_deg": 113.3954,
      "arg_perigee_deg": 267.4545,
      "mean_anomaly_deg": 92.6178,
      "mean_motion_rev_day": 15.26744716
    },
    {
      "epoch": "2026-03-30T01:52:04.036800Z",
      "apogee_km": 486.278444565628,
      "perigee_km": 484.79040060121133,
      "latitude_deg": 1.4920649557129656e-05,
      "longitude_deg": -107.63153673687975,
      "height_km": 485.38813633809076,
      "semi_major_axis_km": 6863.671422583419,
      "eccentricity": 0.0001084,
      "inclination_deg": 43.0019,
      "raan_deg": 107.86,
      "arg_perigee_deg": 264.0594,
      "mean_anomaly_deg": 96.0134,
      "mean_motion_rev_day": 15.26750373
    },
    {
      "epoch": "2026-03-30T01:52:04.037664Z",
      "apogee_km": 486.278444565628,
      "perigee_km": 484.79040060121133,
      "latitude_deg": 1.4920649838200633e-05,
      "longitude_deg": -107.63154034673649,
      "height_km": 485.38813633809076,
      "semi_major_axis_km": 6863.671422583419,
      "eccentricity": 0.0001084,
      "inclination_deg": 43.0019,
      "raan_deg": 107.86,
      "arg_perigee_deg": 264.0594,
      "mean_anomaly_deg": 96.0134,
      "mean_motion_rev_day": 15.26750373
    },
    {
      "epoch": "2026-03-30T09:43:06.945600Z",
      "apogee_km": 486.37745875100245,
      "perigee_km": 484.7487027218431,
      "latitude_deg": -2.0319877642168593e-06,
      "longitude_deg": 132.43950433546865,
      "height_km": 485.4205308857789,
      "semi_major_axis_km": 6863.700080736422,
      "eccentricity": 0.00011865,
      "inclination_deg": 43.0015,
      "raan_deg": 106.0156,
      "arg_perigee_deg": 264.3134,
      "mean_anomaly_deg": 95.7582,
      "mean_motion_rev_day": 15.26740811
    },
    {
      "epoch": "2026-03-30T17:34:09.315264Z",
      "apogee_km": 486.3806570069637,
      "perigee_km": 484.7424294386674,
      "latitude_deg": -1.4846670785782209e-05,
      "longitude_deg": 12.512202370682571,
      "height_km": 485.4178668049355,
      "semi_major_axis_km": 6863.698543222816,
      "eccentricity": 0.00011934,
      "inclination_deg": 43.0015,
      "raan_deg": 104.1706,
      "arg_perigee_deg": 264.4261,
      "mean_anomaly_deg": 95.6454,
      "mean_motion_rev_day": 15.26741324
    },
    {
      "epoch": "2026-03-31T17:07:15.992256Z",
      "apogee_km": 486.51471318785843,
      "perigee_km": 484.54209575061395,
      "latitude_deg": -4.979416221034281e-05,
      "longitude_deg": 12.732405314183682,
      "height_km": 485.2805134085909,
      "semi_major_axis_km": 6863.665404469236,
      "eccentricity": 0.0001437,
      "inclination_deg": 43.0036,
      "raan_deg": 98.6359,
      "arg_perigee_deg": 271.4591,
      "mean_anomaly_deg": 88.6095,
      "mean_motion_rev_day": 15.26752381
    },
    {
      "epoch": "2026-04-01T16:40:23.801952Z",
      "apogee_km": 486.41304675955234,
      "perigee_km": 484.71771227181125,
      "latitude_deg": -3.153876724013019e-05,
      "longitude_deg": 12.946532411886906,
      "height_km": 485.4229912610125,
      "semi_major_axis_km": 6863.702379515682,
      "eccentricity": 0.0001235,
      "inclination_deg": 43.0024,
      "raan_deg": 93.0998,
      "arg_perigee_deg": 264.5363,
      "mean_anomaly_deg": 95.5347,
      "mean_motion_rev_day": 15.26740044
    },
    {
      "epoch": "2026-04-02T16:13:30.673344Z",
      "apogee_km": 486.3346293509676,
      "perigee_km": 484.75639419420986,
      "latitude_deg": -4.4356670151123e-05,
      "longitude_deg": 13.166546271393527,
      "height_km": 485.46039028349605,
      "semi_major_axis_km": 6863.682511772588,
      "eccentricity": 0.00011497,
      "inclination_deg": 43.0031,
      "raan_deg": 87.5657,
      "arg_perigee_deg": 259.9291,
      "mean_anomaly_deg": 100.143,
      "mean_motion_rev_day": 15.26746673
    },
    {
      "epoch": "2026-04-03T15:46:37.992288Z",
      "apogee_km": 486.3655963095089,
      "perigee_km": 484.73615680761304,
      "latitude_deg": 2.413492742324133e-05,
      "longitude_deg": 13.38437625692,
      "height_km": 485.4777514537763,
      "semi_major_axis_km": 6863.687876558561,
      "eccentricity": 0.0001187,
      "inclination_deg": 43.0015,
      "raan_deg": 82.0312,
      "arg_perigee_deg": 259.3803,
      "mean_anomaly_deg": 100.6915,
      "mean_motion_rev_day": 15.26744883
    },
    {
      "epoch": "2026-04-04T15:19:45.418368Z",
      "apogee_km": 486.4488221633919,
      "perigee_km": 484.6875954068173,
      "latitude_deg": -3.1795333183448275e-05,
      "longitude_deg": 13.600925130107523,
      "height_km": 485.38891898074985,
      "semi_major_axis_km": 6863.705208785104,
      "eccentricity": 0.0001283,
      "inclination_deg": 43.0006,
      "raan_deg": 76.496,
      "arg_perigee_deg": 267.1386,
      "mean_anomaly_deg": 92.9318,
      "mean_motion_rev_day": 15.267391
    },
    {
      "epoch": "2026-04-05T05:27:38.408832Z",
      "apogee_km": 486.5048309155536,
      "perigee_km": 484.6387257728975,
      "latitude_deg": 2.323543620062609e-05,
      "longitude_deg": 157.7285340519918,
      "height_km": 485.31430465938683,
      "semi_major_axis_km": 6863.708778344225,
      "eccentricity": 0.00013594,
      "inclination_deg": 43.0034,
      "raan_deg": 73.1747,
      "arg_perigee_deg": 272.1255,
      "mean_anomaly_deg": 87.9441,
      "mean_motion_rev_day": 15.26737909
    },
    {
      "epoch": "2026-04-05T14:52:53.191776Z",
      "apogee_km": 486.4680703408894,
      "perigee_km": 484.66428914525386,
      "latitude_deg": 9.623157910931556e-06,
      "longitude_deg": 13.816025832910798,
      "height_km": 485.31031264881756,
      "semi_major_axis_km": 6863.703179743072,
      "eccentricity": 0.0001314,
      "inclination_deg": 43.0035,
      "raan_deg": 70.9607,
      "arg_perigee_deg": 272.0952,
      "mean_anomaly_deg": 87.9749,
      "mean_motion_rev_day": 15.26739777
    },
    {
      "epoch": "2026-04-06T06:34:57.823104Z",
      "apogee_km": 486.38460145963654,
      "perigee_km": 484.7489808462051,
      "latitude_deg": -6.15604994999033e-05,
      "longitude_deg": 133.96152244427012,
      "height_km": 485.3116603345141,
      "semi_major_axis_km": 6863.7037911529205,
      "eccentricity": 0.00011915,
      "inclination_deg": 43.0032,
      "raan_deg": 67.2704,
      "arg_perigee_deg": 272.25,
      "mean_anomaly_deg": 87.8214,
      "mean_motion_rev_day": 15.26739573
    },
    {
      "epoch": "2026-04-07T06:08:04.899264Z",
      "apogee_km": 486.31640940347006,
      "perigee_km": 484.80378783687684,
      "latitude_deg": -1.6557426542517094e-05,
      "longitude_deg": 134.17953902421183,
      "height_km": 485.37621626765923,
      "semi_major_axis_km": 6863.697098620173,
      "eccentricity": 0.00011019,
      "inclination_deg": 43.003,
      "raan_deg": 61.7351,
      "arg_perigee_deg": 267.0247,
      "mean_anomaly_deg": 93.0478,
      "mean_motion_rev_day": 15.26741806
    },
    {
      "epoch": "2026-04-07T18:41:44.295360Z",
      "apogee_km": 486.2066068128461,
      "perigee_km": 484.8626999031176,
      "latitude_deg": 3.2604033056757176e-05,
      "longitude_deg": -57.702320100678435,
      "height_km": 485.36612542366936,
      "semi_major_axis_km": 6863.671653357981,
      "eccentricity": 9.79e-05,
      "inclination_deg": 43.0024,
      "raan_deg": 58.7832,
      "arg_perigee_deg": 265.3225,
      "mean_anomaly_deg": 94.7515,
      "mean_motion_rev_day": 15.26750296
    },
    {
      "epoch": "2026-04-08T07:15:25.270848Z",
      "apogee_km": 486.68968183903144,
      "perigee_km": 484.68064109237093,
      "latitude_deg": 9.507388464085659e-06,
      "longitude_deg": 110.40854485626858,
      "height_km": 485.73235164373943,
      "semi_major_axis_km": 6863.8221614657,
      "eccentricity": 0.00014635,
      "inclination_deg": 43.005,
      "raan_deg": 55.8307,
      "arg_perigee_deg": 254.4154,
      "mean_anomaly_deg": 105.6536,
      "mean_motion_rev_day": 15.26700079
    },
    {
      "epoch": "2026-04-09T13:05:08.917440Z",
      "apogee_km": 487.2849114423125,
      "perigee_km": 482.9157745497605,
      "latitude_deg": -1.6195674517283316e-05,
      "longitude_deg": 14.740228003152652,
      "height_km": 485.2220637577294,
      "semi_major_axis_km": 6863.237342996036,
      "eccentricity": 0.0003183,
      "inclination_deg": 43.0028,
      "raan_deg": 48.8193,
      "arg_perigee_deg": 260.9546,
      "mean_anomaly_deg": 99.0945,
      "mean_motion_rev_day": 15.26895219
    },
    {
      "epoch": "2026-04-10T06:20:48.700320Z",
      "apogee_km": 485.2499980594175,
      "perigee_km": 482.9228808466296,
      "latitude_deg": 1.232852409289188e-05,
      "longitude_deg": 111.05350829810946,
      "height_km": 484.1138513796919,
      "semi_major_axis_km": 6862.223439453023,
      "eccentricity": 0.00016956,
      "inclination_deg": 43.0043,
      "raan_deg": 44.7572,
      "arg_perigee_deg": 257.5915,
      "mean_anomaly_deg": 102.4747,
      "mean_motion_rev_day": 15.27233633
    },
    {
      "epoch": "2026-04-11T20:00:49.760064Z",
      "apogee_km": 484.120585912312,
      "perigee_km": 482.5026563274523,
      "latitude_deg": 6.417326570177483e-05,
      "longitude_deg": -104.35708219146444,
      "height_km": 482.76003720161077,
      "semi_major_axis_km": 6861.448621119882,
      "eccentricity": 0.0001179,
      "inclination_deg": 43.0026,
      "raan_deg": 35.8979,
      "arg_perigee_deg": 293.9468,
      "mean_anomaly_deg": 66.1261,
      "mean_motion_rev_day": 15.27492331
    },
    {
      "epoch": "2026-04-13T03:23:56.037120Z",
      "apogee_km": 483.7851546145621,
      "perigee_km": 482.3467720253311,
      "latitude_deg": 8.942761872063201e-06,
      "longitude_deg": 136.19266451823762,
      "height_km": 482.8963166274665,
      "semi_major_axis_km": 6861.202963319946,
      "eccentricity": 0.00010482,
      "inclination_deg": 43.0029,
      "raan_deg": 28.5128,
      "arg_perigee_deg": 265.7228,
      "mean_anomaly_deg": 94.3504,
      "mean_motion_rev_day": 15.27574367
    },
    {
      "epoch": "2026-04-14T10:47:03.701760Z",
      "apogee_km": 483.7964130869377,
      "perigee_km": 482.30931879539366,
      "latitude_deg": -1.0085404015942013e-05,
      "longitude_deg": 16.73605427208034,
      "height_km": 482.9066980302306,
      "semi_major_axis_km": 6861.189865941165,
      "eccentricity": 0.00010837,
      "inclination_deg": 43.0032,
      "raan_deg": 21.1271,
      "arg_perigee_deg": 264.0515,
      "mean_anomaly_deg": 96.0213,
      "mean_motion_rev_day": 15.27578741
    }
  ]
}